[{"OBJECT_NAME":"STARLINK-4544","OBJECT_ID":"2022-097G","EPOCH":"2026-03-09T12:31:32.344032","MEAN_MOTION":15.08839779,"ECCENTRICITY":0.0001436,"INCLINATION":53.217,"RA_OF_ASC_NODE":114.4865,"ARG_OF_PERICENTER":83.1077,"MEAN_ANOMALY":277.0079,"EPHEMERIS_TYPE":0,"CLASSIFICATION_TYPE":"U","NORAD_CAT_ID":53394,"ELEMENT_SET_NO":999,"REV_AT_EPOCH":19879,"BSTAR":7.617e-6,"MEAN_MOTION_DOT":-1.67e-6,"MEAN_MOTION_DDOT":0},{"OBJECT_NAME":"CZ-4C DEB","OBJECT_ID":"2018-031H","EPOCH":"2026-03-09T10:10:58.582560","MEAN_MOTION":15.14033759,"ECCENTRICITY":0.00199639,"INCLINATION":98.1663,"RA_OF_ASC_NODE":242.9335,"ARG_OF_PERICENTER":272.748,"MEAN_ANOMALY":87.1465,"EPHEMERIS_TYPE":0,"CLASSIFICATION_TYPE":"U","NORAD_CAT_ID":43266,"ELEMENT_SET_NO":999,"REV_AT_EPOCH":43166,"BSTAR":0.00079064643,"MEAN_MOTION_DOT":0.00014379,"MEAN_MOTION_DDOT":0}]
